{"type": "FeatureCollection", "features": [{"type": "Feature", "properties": {"norad_id": 24946, "name": "IRIDIUM 33", "group": "iridium-33-debris", "lat": -35.184889335234864, "lon": -109.52134461079248, "alt_km": 776.4653134363089, "timestamp": "2025-12-13T10:41:26.150504+00:00", "meta": {"OBJECT_NAME": "IRIDIUM 33", "OBJECT_ID": "1997-051C", "EPOCH": "2025-12-12T23:39:00.061632", "MEAN_MOTION": 14.35037861, "ECCENTRICITY": 0.00070528, "INCLINATION": 86.3869, "RA_OF_ASC_NODE": 68.1185, "ARG_OF_PERICENTER": 199.357, "MEAN_ANOMALY": 160.7359, "EPHEMERIS_TYPE": 0, "CLASSIFICATION_TYPE": "U", "NORAD_CAT_ID": 24946, "ELEMENT_SET_NO": 999, "REV_AT_EPOCH": 47838, "BSTAR": 0.00018471148, "MEAN_MOTION_DOT": 5.46e-06, "MEAN_MOTION_DDOT": 0}, "tle": {"line1": "1 24946U 97051C   25346.98541738  .00000546  00000+0  18471-3 0  9990", "line2": "2 24946  86.3869  68.1185 0007052 199.3570 160.7359 14.35037861478383"}}, "geometry": {"type": "Point", "coordinates": [-109.52134461079248, -35.184889335234864]}}, {"type": "Feature", "properties": {"norad_id": 33773, "name": "IRIDIUM 33 DEB", "group": "iridium-33-debris", "lat": -13.187394878491876, "lon": -118.86454264914572, "alt_km": 746.5192300272465, "timestamp": "2025-12-13T10:41:26.150542+00:00", "meta": {"OBJECT_NAME": "IRIDIUM 33 DEB", "OBJECT_ID": "1997-051L", "EPOCH": "2025-12-12T18:49:25.822560", "MEAN_MOTION": 14.43257745, "ECCENTRICITY": 0.00124824, "INCLINATION": 86.4008, "RA_OF_ASC_NODE": 60.5705, "ARG_OF_PERICENTER": 146.2466, "MEAN_ANOMALY": 213.9532, "EPHEMERIS_TYPE": 0, "CLASSIFICATION_TYPE": "U", "NORAD_CAT_ID": 33773, "ELEMENT_SET_NO": 999, "REV_AT_EPOCH": 88348, "BSTAR": 0.00050017658, "MEAN_MOTION_DOT": 1.704e-05, "MEAN_MOTION_DDOT": 0}, "tle": {"line1": "1 33773U 97051L   25346.78432665  .00001704  00000+0  50018-3 0  9994", "line2": "2 33773  86.4008  60.5705 0012482 146.2466 213.9532 14.43257745883488"}}, "geometry": {"type": "Point", "coordinates": [-118.86454264914572, -13.187394878491876]}}, {"type": "Feature", "properties": {"norad_id": 33775, "name": "IRIDIUM 33 DEB", "group": "iridium-33-debris", "lat": -85.80353431971642, "lon": -10.8210718474962, "alt_km": 766.1601840516978, "timestamp": "2025-12-13T10:41:26.150559+00:00", "meta": {"OBJECT_NAME": "IRIDIUM 33 DEB", "OBJECT_ID": "1997-051N", "EPOCH": "2025-12-12T15:40:06.507840", "MEAN_MOTION": 14.41468648, "ECCENTRICITY": 0.00142791, "INCLINATION": 86.3638, "RA_OF_ASC_NODE": 49.5908, "ARG_OF_PERICENTER": 154.8579, "MEAN_ANOMALY": 326.7403, "EPHEMERIS_TYPE": 0, "CLASSIFICATION_TYPE": "U", "NORAD_CAT_ID": 33775, "ELEMENT_SET_NO": 999, "REV_AT_EPOCH": 88139, "BSTAR": 0.00050925625, "MEAN_MOTION_DOT": 1.673e-05, "MEAN_MOTION_DDOT": 0}, "tle": {"line1": "1 33775U 97051N   25346.65285310  .00001673  00000+0  50926-3 0  9998", "line2": "2 33775  86.3638  49.5908 0014279 154.8579 326.7403 14.41468648881398"}}, "geometry": {"type": "Point", "coordinates": [-10.8210718474962, -85.80353431971642]}}, {"type": "Feature", "properties": {"norad_id": 33776, "name": "IRIDIUM 33 DEB", "group": "iridium-33-debris", "lat": 46.49829236126817, "lon": -103.32015811249063, "alt_km": 754.4007626220764, "timestamp": "2025-12-13T10:41:26.150573+00:00", "meta": {"OBJECT_NAME": "IRIDIUM 33 DEB", "OBJECT_ID": "1997-051P", "EPOCH": "2025-12-13T00:51:23.971104", "MEAN_MOTION": 14.38235979, "ECCENTRICITY": 0.00143725, "INCLINATION": 86.4037, "RA_OF_ASC_NODE": 80.6516, "ARG_OF_PERICENTER": 189.3771, "MEAN_ANOMALY": 343.8799, "EPHEMERIS_TYPE": 0, "CLASSIFICATION_TYPE": "U", "NORAD_CAT_ID": 33776, "ELEMENT_SET_NO": 999, "REV_AT_EPOCH": 88086, "BSTAR": 0.00044397414, "MEAN_MOTION_DOT": 1.369e-05, "MEAN_MOTION_DDOT": 0}, "tle": {"line1": "1 33776U 97051P   25347.03569411  .00001369  00000+0  44397-3 0  9996", "line2": "2 33776  86.4037  80.6516 0014372 189.3771 343.8799 14.38235979880869"}}, "geometry": {"type": "Point", "coordinates": [-103.32015811249063, 46.49829236126817]}}, {"type": "Feature", "properties": {"norad_id": 33777, "name": "IRIDIUM 33 DEB", "group": "iridium-33-debris", "lat": -34.73821312349588, "lon": 32.37961351409985, "alt_km": 712.9494659221364, "timestamp": "2025-12-13T10:41:26.150586+00:00", "meta": {"OBJECT_NAME": "IRIDIUM 33 DEB", "OBJECT_ID": "1997-051Q", "EPOCH": "2025-12-12T15:03:07.539840", "MEAN_MOTION": 14.55614402, "ECCENTRICITY": 0.00051663, "INCLINATION": 86.3787, "RA_OF_ASC_NODE": 35.2523, "ARG_OF_PERICENTER": 249.4756, "MEAN_ANOMALY": 110.5898, "EPHEMERIS_TYPE": 0, "CLASSIFICATION_TYPE": "U", "NORAD_CAT_ID": 33777, "ELEMENT_SET_NO": 999, "REV_AT_EPOCH": 88532, "BSTAR": 0.0013413038, "MEAN_MOTION_DOT": 5.872e-05, "MEAN_MOTION_DDOT": 0}, "tle": {"line1": "1 33777U 97051Q   25346.62717060  .00005872  00000+0  13413-2 0  9993", "line2": "2 33777  86.3787  35.2523 0005166 249.4756 110.5898 14.55614402885323"}}, "geometry": {"type": "Point", "coordinates": [32.37961351409985, -34.73821312349588]}}, {"type": "Feature", "properties": {"norad_id": 33850, "name": "IRIDIUM 33 DEB", "group": "iridium-33-debris", "lat": -74.32815922466088, "lon": -136.94198229131308, "alt_km": 759.7271247041235, "timestamp": "2025-12-13T10:41:26.150598+00:00", "meta": {"OBJECT_NAME": "IRIDIUM 33 DEB", "OBJECT_ID": "1997-051T", "EPOCH": "2025-12-12T20:59:36.113856", "MEAN_MOTION": 14.42146738, "ECCENTRICITY": 0.0012262, "INCLINATION": 86.3417, "RA_OF_ASC_NODE": 30.1217, "ARG_OF_PERICENTER": 160.5647, "MEAN_ANOMALY": 12.8828, "EPHEMERIS_TYPE": 0, "CLASSIFICATION_TYPE": "U", "NORAD_CAT_ID": 33850, "ELEMENT_SET_NO": 999, "REV_AT_EPOCH": 88154, "BSTAR": 0.00044923217, "MEAN_MOTION_DOT": 1.498e-05, "MEAN_MOTION_DDOT": 0}, "tle": {"line1": "1 33850U 97051T   25346.87472354  .00001498  00000+0  44923-3 0  9997", "line2": "2 33850  86.3417  30.1217 0012262 160.5647  12.8828 14.42146738881541"}}, "geometry": {"type": "Point", "coordinates": [-136.94198229131308, -74.32815922466088]}}, {"type": "Feature", "properties": {"norad_id": 33853, "name": "IRIDIUM 33 DEB", "group": "iridium-33-debris", "lat": 13.693798429496267, "lon": 168.52533074336895, "alt_km": 837.7464995867749, "timestamp": "2025-12-13T10:41:26.150611+00:00", "meta": {"OBJECT_NAME": "IRIDIUM 33 DEB", "OBJECT_ID": "1997-051W", "EPOCH": "2025-12-12T23:43:16.203072", "MEAN_MOTION": 13.99064689, "ECCENTRICITY": 0.02070018, "INCLINATION": 86, "RA_OF_ASC_NODE": 349.7025, "ARG_OF_PERICENTER": 235.0402, "MEAN_ANOMALY": 152.6554, "EPHEMERIS_TYPE": 0, "CLASSIFICATION_TYPE": "U", "NORAD_CAT_ID": 33853, "ELEMENT_SET_NO": 999, "REV_AT_EPOCH": 85349, "BSTAR": 0.0026505362, "MEAN_MOTION_DOT": 4.623e-05, "MEAN_MOTION_DDOT": 0}, "tle": {"line1": "1 33853U 97051W   25346.98838198  .00004623  00000+0  26505-2 0  9992", "line2": "2 33853  86.0000 349.7025 0207001 235.0402 152.6554 13.99064689853496"}}, "geometry": {"type": "Point", "coordinates": [168.52533074336895, 13.693798429496267]}}, {"type": "Feature", "properties": {"norad_id": 33860, "name": "IRIDIUM 33 DEB", "group": "iridium-33-debris", "lat": -72.03530935075172, "lon": -141.8271294161201, "alt_km": 678.0198646827521, "timestamp": "2025-12-13T10:41:26.150623+00:00", "meta": {"OBJECT_NAME": "IRIDIUM 33 DEB", "OBJECT_ID": "1997-051AD", "EPOCH": "2025-12-12T21:15:55.141632", "MEAN_MOTION": 14.67373087, "ECCENTRICITY": 0.00074389, "INCLINATION": 86.3839, "RA_OF_ASC_NODE": 27.1734, "ARG_OF_PERICENTER": 357.4731, "MEAN_ANOMALY": 181.891, "EPHEMERIS_TYPE": 0, "CLASSIFICATION_TYPE": "U", "NORAD_CAT_ID": 33860, "ELEMENT_SET_NO": 999, "REV_AT_EPOCH": 88724, "BSTAR": 0.0017350996, "MEAN_MOTION_DOT": 9.832e-05, "MEAN_MOTION_DDOT": 0}, "tle": {"line1": "1 33860U 97051AD  25346.88605488  .00009832  00000+0  17351-2 0  9999", "line2": "2 33860  86.3839  27.1734 0007438 357.4731 181.8910 14.67373087887248"}}, "geometry": {"type": "Point", "coordinates": [-141.8271294161201, -72.03530935075172]}}, {"type": "Feature", "properties": {"norad_id": 33862, "name": "IRIDIUM 33 DEB", "group": "iridium-33-debris", "lat": -67.1524233382333, "lon": 28.648076448563753, "alt_km": 696.1475829776273, "timestamp": "2025-12-13T10:41:26.150634+00:00", "meta": {"OBJECT_NAME": "IRIDIUM 33 DEB", "OBJECT_ID": "1997-051AF", "EPOCH": "2025-12-12T15:55:01.502112", "MEAN_MOTION": 14.69477679, "ECCENTRICITY": 0.00534829, "INCLINATION": 86.4093, "RA_OF_ASC_NODE": 37.5638, "ARG_OF_PERICENTER": 69.4755, "MEAN_ANOMALY": 48.1816, "EPHEMERIS_TYPE": 0, "CLASSIFICATION_TYPE": "U", "NORAD_CAT_ID": 33862, "ELEMENT_SET_NO": 999, "REV_AT_EPOCH": 88822, "BSTAR": 0.0019686403, "MEAN_MOTION_DOT": 0.00011955, "MEAN_MOTION_DDOT": 0}, "tle": {"line1": "1 33862U 97051AF  25346.66321183  .00011955  00000+0  19686-2 0  9996", "line2": "2 33862  86.4093  37.5638 0053482  69.4755  48.1816 14.69477679888220"}}, "geometry": {"type": "Point", "coordinates": [28.648076448563753, -67.1524233382333]}}, {"type": "Feature", "properties": {"norad_id": 33866, "name": "IRIDIUM 33 DEB", "group": "iridium-33-debris", "lat": -67.26231845893669, "lon": -78.37995144131743, "alt_km": 811.6015572920087, "timestamp": "2025-12-13T10:41:26.150645+00:00", "meta": {"OBJECT_NAME": "IRIDIUM 33 DEB", "OBJECT_ID": "1997-051AK", "EPOCH": "2025-12-12T17:16:50.270592", "MEAN_MOTION": 14.25275842, "ECCENTRICITY": 0.01144792, "INCLINATION": 86.2996, "RA_OF_ASC_NODE": 93.0437, "ARG_OF_PERICENTER": 161.4645, "MEAN_ANOMALY": 324.9498, "EPHEMERIS_TYPE": 0, "CLASSIFICATION_TYPE": "U", "NORAD_CAT_ID": 33866, "ELEMENT_SET_NO": 999, "REV_AT_EPOCH": 86810, "BSTAR": 0.001099679, "MEAN_MOTION_DOT": 2.789e-05, "MEAN_MOTION_DDOT": 0}, "tle": {"line1": "1 33866U 97051AK  25346.72002628  .00002789  00000+0  10997-2 0  9998", "line2": "2 33866  86.2996  93.0437 0114479 161.4645 324.9498 14.25275842868109"}}, "geometry": {"type": "Point", "coordinates": [-78.37995144131743, -67.26231845893669]}}]}